HST                     
1 20580U 90037B   24093.47259382  .00005455  00000+0  26226-3 0  9991
2 20580  28.4677 131.9734 0002181 285.3315  74.7036 15.16580898665520
